$$SOE
2459580.500000000, A.D. 2022-Jan-01 00:00:00.0000, -5.447384453510199E+08, -4.853624304171036E+07, 2.058599943190284E+07,
2459587.500000000, A.D. 2022-Jan-08 00:00:00.0000, -5.428550035985227E+08, -5.723825564006025E+07, 2.130695086472631E+07,
2459594.500000000, A.D. 2022-Jan-15 00:00:00.0000, -5.408099622800021E+08, -6.592321266755366E+07, 2.202155805894960E+07,
2459601.500000000, A.D. 2022-Jan-22 00:00:00.0000, -5.386030190735613E+08, -7.458841843219836E+07, 2.272957087537792E+07,
2459608.500000000, A.D. 2022-Jan-29 00:00:00.0000, -5.362339038550171E+08, -8.323114841205716E+07, 2.343073790582327E+07,
2459615.500000000, A.D. 2022-Feb-05 00:00:00.0000, -5.337023818564403E+08, -9.184864971584439E+07, 2.412480663007549E+07,
2459622.500000000, A.D. 2022-Feb-12 00:00:00.0000, -5.310082546882749E+08, -1.004381426288722E+08, 2.481152329042332E+07,
2459629.500000000, A.D. 2022-Feb-19 00:00:00.0000, -5.281513605498911E+08, -1.089968208759051E+08, 2.549063279895463E+07,
2459636.500000000, A.D. 2022-Feb-26 00:00:00.0000, -5.251315749396665E+08, -1.175218513252062E+08, 2.616187873878376E+07,
2459643.500000000, A.D. 2022-Mar-05 00:00:00.0000, -5.219488117055076E+08, -1.260103737521959E+08, 2.682500339404967E+07,
2459650.500000000, A.D. 2022-Mar-12 00:00:00.0000, -5.186030242141132E+08, -1.344595007298812E+08, 2.747974778281796E+07,
2459657.500000000, A.D. 2022-Mar-19 00:00:00.0000, -5.150942065678268E+08, -1.428663176196857E+08, 2.812585168849443E+07,
2459664.500000000, A.D. 2022-Mar-26 00:00:00.0000, -5.114223948467696E+08, -1.512278826706838E+08, 2.876305368705505E+07,
2459671.500000000, A.D. 2022-Apr-02 00:00:00.0000, -5.075876683090661E+08, -1.595412272852895E+08, 2.939109115919998E+07,
2459678.500000000, A.D. 2022-Apr-09 00:00:00.0000, -5.035901502780096E+08, -1.678033564485661E+08, 3.000970026283877E+07,
2459685.500000000, A.D. 2022-Apr-16 00:00:00.0000, -4.994300083597129E+08, -1.760112486687922E+08, 3.061861588661816E+07,
2459692.500000000, A.D. 2022-Apr-23 00:00:00.0000, -4.951074552601705E+08, -1.841618543467852E+08, 3.121757178952537E+07,
2459699.500000000, A.D. 2022-Apr-30 00:00:00.0000, -4.906227520719184E+08, -1.922520948217051E+08, 3.180630091468570E+07,
2459706.500000000, A.D. 2022-May-07 00:00:00.0000, -4.859762109684837E+08, -2.002788640696916E+08, 3.238453543534720E+07,
2459713.500000000, A.D. 2022-May-14 00:00:00.0000, -4.811681959178349E+08, -2.082390300192309E+08, 3.295200665420959E+07,
2459720.500000000, A.D. 2022-May-21 00:00:00.0000, -4.761991234453027E+08, -2.161294347265432E+08, 3.350844500466026E+07,
2459727.500000000, A.D. 2022-May-28 00:00:00.0000, -4.710694639240901E+08, -2.239468943725423E+08, 3.405358011968523E+07,
2459734.500000000, A.D. 2022-Jun-04 00:00:00.0000, -4.657797431161664E+08, -2.316881993973518E+08, 3.458714091772301E+07,
2459741.500000000, A.D. 2022-Jun-11 00:00:00.0000, -4.603305438189974E+08, -2.393501147731625E+08, 3.510885569269738E+07,
2459748.500000000, A.D. 2022-Jun-18 00:00:00.0000, -4.547225075792776E+08, -2.469293804048851E+08, 3.561845220612839E+07,
2459755.500000000, A.D. 2022-Jun-25 00:00:00.0000, -4.489563364437109E+08, -2.544227116944870E+08, 3.611565777627949E+07,
2459762.500000000, A.D. 2022-Jul-02 00:00:00.0000, -4.430327946120079E+08, -2.618268003376009E+08, 3.660019934705102E+07,
2459769.500000000, A.D. 2022-Jul-09 00:00:00.0000, -4.369527096008303E+08, -2.691383151784008E+08, 3.707180351568394E+07,
2459776.500000000, A.D. 2022-Jul-16 00:00:00.0000, -4.307169729725248E+08, -2.763539020429765E+08, 3.753019661322667E+07,
2459783.500000000, A.D. 2022-Jul-23 00:00:00.0000, -4.243265428252158E+08, -2.834701824768222E+08, 3.797510504614045E+07,
2459790.500000000, A.D. 2022-Jul-30 00:00:00.0000, -4.177824479586108E+08, -2.904837547445608E+08, 3.840625561767690E+07,
2459797.500000000, A.D. 2022-Aug-06 00:00:00.0000, -4.110857901160362E+08, -2.973911964481595E+08, 3.882337555251004E+07,
2459804.500000000, A.D. 2022-Aug-13 00:00:00.0000, -4.042377451245856E+08, -3.041890660126328E+08, 3.922619252587730E+07,
2459811.500000000, A.D. 2022-Aug-20 00:00:00.0000, -3.972395645001816E+08, -3.108739035458515E+08, 3.961443480053571E+07,
2459818.500000000, A.D. 2022-Aug-27 00:00:00.0000, -3.900925774464420E+08, -3.174422318029222E+08, 3.998783140630890E+07,
2459825.500000000, A.D. 2022-Sep-03 00:00:00.0000, -3.827981929966488E+08, -3.238905573701705E+08, 4.034611233085191E+07,
2459832.500000000, A.D. 2022-Sep-10 00:00:00.0000, -3.753579022061219E+08, -3.302153720494183E+08, 4.068900871576183E+07,
2459839.500000000, A.D. 2022-Sep-17 00:00:00.0000, -3.677732803628073E+08, -3.364131544487366E+08, 4.101625305558673E+07,
2459846.500000000, A.D. 2022-Sep-24 00:00:00.0000, -3.600459891524650E+08, -3.424803718349158E+08, 4.132757939034131E+07,
2459853.500000000, A.D. 2022-Oct-01 00:00:00.0000, -3.521777785349259E+08, -3.484134822743404E+08, 4.162272346790607E+07,
2459860.500000000, A.D. 2022-Oct-08 00:00:00.0000, -3.441704879202723E+08, -3.542089365445254E+08, 4.190142288175635E+07,
2459867.500000000, A.D. 2022-Oct-15 00:00:00.0000, -3.360260475724222E+08, -3.598631786211452E+08, 4.216341736752805E+07,
2459874.500000000, A.D. 2022-Oct-22 00:00:00.0000, -3.277464824166725E+08, -3.653726464283730E+08, 4.240844932082967E+07,
2459881.500000000, A.D. 2022-Oct-29 00:00:00.0000, -3.193339157484275E+08, -3.707337754504398E+08, 4.263626409519532E+07,
2459888.500000000, A.D. 2022-Nov-05 00:00:00.0000, -3.107905707390344E+08, -3.759430024671491E+08, 4.284661011168087E+07,
2459895.500000000, A.D. 2022-Nov-12 00:00:00.0000, -3.021187716974394E+08, -3.809967681485560E+08, 4.303923906376638E+07,
2459902.500000000, A.D. 2022-Nov-19 00:00:00.0000, -2.933209457991493E+08, -3.858915194651591E+08, 4.321390620521745E+07,
2459909.500000000, A.D. 2022-Nov-26 00:00:00.0000, -2.843996250115572E+08, -3.906237123142785E+08, 4.337037066400398E+07,
2459916.500000000, A.D. 2022-Dec-03 00:00:00.0000, -2.753574480411933E+08, -3.951898143787755E+08, 4.350839576595001E+07,
2459923.500000000, A.D. 2022-Dec-10 00:00:00.0000, -2.661971622498362E+08, -3.995863082044506E+08, 4.362774936562313E+07,
2459930.500000000, A.D. 2022-Dec-17 00:00:00.0000, -2.569216255076677E+08, -4.038096945253929E+08, 4.372820418046165E+07,
2459937.500000000, A.D. 2022-Dec-24 00:00:00.0000, -2.475338078665790E+08, -4.078564959062015E+08, 4.380953811298509E+07,
2459944.500000000, A.D. 2022-Dec-31 00:00:00.0000, -2.380367926875928E+08, -4.117232605956441E+08, 4.387153453718880E+07,
2459951.500000000, A.D. 2023-Jan-07 00:00:00.0000, -2.284337770903321E+08, -4.154065656306069E+08, 4.391398261647278E+07,
2459958.500000000, A.D. 2023-Jan-14 00:00:00.0000, -2.187280736810845E+08, -4.189030186938950E+08, 4.393667787388517E+07,
2459965.500000000, A.D. 2023-Jan-21 00:00:00.0000, -2.089231141926286E+08, -4.222092618987590E+08, 4.393942281414312E+07,
2459972.500000000, A.D. 2023-Jan-28 00:00:00.0000, -1.990224513562874E+08, -4.253219776967194E+08, 4.392202724476807E+07,
2459979.500000000, A.D. 2023-Feb-04 00:00:00.0000, -1.890297592036653E+08, -4.282378938814675E+08, 4.388430856279160E+07,
2459986.500000000, A.D. 2023-Feb-11 00:00:00.0000, -1.789488335816800E+08, -4.309537878812686E+08, 4.382609215562809E+07,
2459993.500000000, A.D. 2023-Feb-18 00:00:00.0000, -1.687835929317109E+08, -4.334664911606559E+08, 4.374721185418506E+07,
2460000.500000000, A.D. 2023-Feb-25 00:00:00.0000, -1.585380790569014E+08, -4.357728938900375E+08, 4.364751040028076E+07,
2460007.500000000, A.D. 2023-Mar-04 00:00:00.0000, -1.482164577617255E+08, -4.378699498607665E+08, 4.352683991986674E+07,
2460014.500000000, A.D. 2023-Mar-11 00:00:00.0000, -1.378230193213458E+08, -4.397546816411425E+08, 4.338506239886411E+07,
2460021.500000000, A.D. 2023-Mar-18 00:00:00.0000, -1.273621787199696E+08, -4.414241860180417E+08, 4.322205015269291E+07,
2460028.500000000, A.D. 2023-Mar-25 00:00:00.0000, -1.168384754412147E+08, -4.428756397654869E+08, 4.303768626638329E+07,
2460035.500000000, A.D. 2023-Apr-01 00:00:00.0000, -1.062565723722510E+08, -4.441063053396109E+08, 4.283186499774581E+07,
2460042.500000000, A.D. 2023-Apr-08 00:00:00.0000, -9.562125442335193E+07, -4.451135352664055E+08, 4.260449229922692E+07,
2460049.500000000, A.D. 2023-Apr-15 00:00:00.0000, -8.493742918575144E+07, -4.458947763179759E+08, 4.235548658116117E+07,
2460056.500000000, A.D. 2023-Apr-22 00:00:00.0000, -7.421012780397798E+07, -4.464475765181224E+08, 4.208477929961149E+07,
2460063.500000000, A.D. 2023-Apr-29 00:00:00.0000, -6.344450331357256E+07, -4.467695927135957E+08, 4.179231530073385E+07,
2460070.500000000, A.D. 2023-May-06 00:00:00.0000, -5.264582819147872E+07, -4.468585969178098E+08, 4.147805322735268E+07,
2460077.500000000, A.D. 2023-May-13 00:00:00.0000, -4.181949208343104E+07, -4.467124823064104E+08, 4.114196600269431E+07,
2460084.500000000, A.D. 2023-May-20 00:00:00.0000, -3.097099946217078E+07, -4.463292693399938E+08, 4.078404132776843E+07,
2460091.500000000, A.D. 2023-May-27 00:00:00.0000, -2.010596701152552E+07, -4.457071120261357E+08, 4.040428217009385E+07,
2460098.500000000, A.D. 2023-Jun-03 00:00:00.0000, -9.230120667813953E+06, -4.448443042761720E+08, 4.000270723826188E+07,
2460105.500000000, A.D. 2023-Jun-10 00:00:00.0000, 1.650707715438274E+06, -4.437392863510321E+08, 3.957935143664293E+07,
2460112.500000000, A.D. 2023-Jun-17 00:00:00.0000, 1.253058417749172E+07, -4.423906514359938E+08, 3.913426628484981E+07,
2460119.500000000, A.D. 2023-Jun-24 00:00:00.0000, 2.340347726244425E+07, -4.407971522673926E+08, 3.866752027488454E+07,
2460126.500000000, A.D. 2023-Jul-01 00:00:00.0000, 3.426326369208486E+07, -4.389577069602924E+08, 3.817919920808922E+07,
2460133.500000000, A.D. 2023-Jul-08 00:00:00.0000, 4.510373342938437E+07, -4.368714031899876E+08, 3.766940673007858E+07,
2460140.500000000, A.D. 2023-Jul-15 00:00:00.0000, 5.591859285845656E+07, -4.345375035293486E+08, 3.713826494658229E+07,
$$EOE